ORBCOMM FM103           
1 40091U 14040F   24229.50825281  .00003229  00000+0  74972-3 0  9990
2 40091  47.0065  15.4755 0002359 299.5008  60.5641 14.56901155519652
ORBCOMM FM114           
1 41179U 15081A   24229.53796026  .00002784  00000+0  65106-3 0  9995
2 41179  47.0020 284.5517 0001887 346.4079  13.6754 14.56933691460021
ORBCOMM FM119           
1 41180U 15081B   24229.37592540  .00003345  00000+0  77549-3 0  9992
2 41180  46.9984 194.5394 0000657  63.1472 296.9480 14.56876607461258
ORBCOMM FM105           
1 41181U 15081C   24229.28308969  .00001588  00000+0  50025-3 0  9990
2 41181  46.9999 170.8845 0001751   9.9848 350.1067 14.44548577456655
ORBCOMM FM110           
1 41182U 15081D   24229.44649297  .00003060  00000+0  71091-3 0  9994
2 41182  47.0010 284.3811 0002465 234.6429 125.4226 14.56995881459886
ORBCOMM FM118           
1 41183U 15081E   24229.49283884  .00002801  00000+0  65420-3 0  9997
2 41183  47.0033 284.4933 0002630 229.8126 130.2529 14.56982901460074
ORBCOMM FM112           
1 41184U 15081F   24229.35291948  .00003019  00000+0  70396-3 0  9993
2 41184  46.9968 193.8473 0001386  35.2978 324.7999 14.56860248461197
ORBCOMM FM113           
1 41185U 15081G   24229.39866904  .00003275  00000+0  76013-3 0  9994
2 41185  46.9982 193.9135 0000827  46.6818 313.4136 14.56871075461185
